[{"OBJECT_NAME":"STARLINK-3677","OBJECT_ID":"2022-025Q","EPOCH":"2026-03-09T07:11:46.213152","MEAN_MOTION":15.06401696,"ECCENTRICITY":0.00015376,"INCLINATION":53.0566,"RA_OF_ASC_NODE":32.6524,"ARG_OF_PERICENTER":85.1631,"MEAN_ANOMALY":274.9533,"EPHEMERIS_TYPE":0,"CLASSIFICATION_TYPE":"U","NORAD_CAT_ID":51970,"ELEMENT_SET_NO":999,"REV_AT_EPOCH":22086,"BSTAR":1.844148e-5,"MEAN_MOTION_DOT":-7.0e-8,"MEAN_MOTION_DDOT":0},{"OBJECT_NAME":"THORAD AGENA D DEB","OBJECT_ID":"1969-082Z","EPOCH":"2026-03-09T07:18:45.871776","MEAN_MOTION":15.11837328,"ECCENTRICITY":0.00204275,"INCLINATION":70.0067,"RA_OF_ASC_NODE":36.7332,"ARG_OF_PERICENTER":221.6463,"MEAN_ANOMALY":138.3149,"EPHEMERIS_TYPE":0,"CLASSIFICATION_TYPE":"U","NORAD_CAT_ID":4157,"ELEMENT_SET_NO":999,"REV_AT_EPOCH":97934,"BSTAR":0.0014373482,"MEAN_MOTION_DOT":0.00024719,"MEAN_MOTION_DDOT":0}]
